{
  "links" : {
    "next" : "https://api.nasa.gov/neo/rest/v1/feed?start_date=2005-02-09&end_date=2005-02-09&detailed=true&api_key=t0TVs3DtDT2H8Oy2Zy8m2eVrNsAVKAexjcZXUckd",
    "prev" : "https://api.nasa.gov/neo/rest/v1/feed?start_date=2005-02-07&end_date=2005-02-07&detailed=true&api_key=t0TVs3DtDT2H8Oy2Zy8m2eVrNsAVKAexjcZXUckd",
    "self" : "https://api.nasa.gov/neo/rest/v1/feed?start_date=2005-02-08&end_date=2005-02-08&detailed=true&api_key=t0TVs3DtDT2H8Oy2Zy8m2eVrNsAVKAexjcZXUckd"
  },
  "element_count" : 4,
  "near_earth_objects" : {
    "2005-02-08" : [ {
      "links" : {
        "self" : "https://api.nasa.gov/neo/rest/v1/neo/3314048?api_key=t0TVs3DtDT2H8Oy2Zy8m2eVrNsAVKAexjcZXUckd"
      },
      "neo_reference_id" : "3314048",
      "name" : "(2006 BJ55)",
      "nasa_jpl_url" : "http://ssd.jpl.nasa.gov/sbdb.cgi?sstr=3314048",
      "absolute_magnitude_h" : 24.2,
      "estimated_diameter" : {
        "kilometers" : {
          "estimated_diameter_min" : 0.0384197891,
          "estimated_diameter_max" : 0.0859092601
        },
        "meters" : {
          "estimated_diameter_min" : 38.4197891064,
          "estimated_diameter_max" : 85.9092601232
        },
        "miles" : {
          "estimated_diameter_min" : 0.0238729428,
          "estimated_diameter_max" : 0.0533815229
        },
        "feet" : {
          "estimated_diameter_min" : 126.0491808919,
          "estimated_diameter_max" : 281.8545369825
        }
      },
      "is_potentially_hazardous_asteroid" : false,
      "close_approach_data" : [ {
        "close_approach_date" : "2005-02-08",
        "epoch_date_close_approach" : 1107849600000,
        "relative_velocity" : {
          "kilometers_per_second" : "13.289003425",
          "kilometers_per_hour" : "47840.4123298931",
          "miles_per_hour" : "29726.1717613161"
        },
        "miss_distance" : {
          "astronomical" : "0.2955696108",
          "lunar" : "114.9765701294",
          "kilometers" : "44216584",
          "miles" : "27474910"
        },
        "orbiting_body" : "Earth"
      } ],
      "orbital_data" : {
        "orbit_id" : "10",
        "orbit_determination_date" : "2017-04-06 09:09:14",
        "orbit_uncertainty" : "6",
        "minimum_orbit_intersection" : ".0274085",
        "jupiter_tisserand_invariant" : "5.937",
        "epoch_osculation" : "2458000.5",
        "eccentricity" : ".128312726834268",
        "semi_major_axis" : "1.028346942990704",
        "inclination" : "5.903973907216583",
        "ascending_node_longitude" : "307.4472584067585",
        "orbital_period" : "380.8973216999961",
        "perihelion_distance" : ".8963969426038833",
        "perihelion_argument" : "288.8073597080477",
        "aphelion_distance" : "1.160296943377525",
        "perihelion_time" : "2458047.711185224608",
        "mean_anomaly" : "315.3789808628657",
        "mean_motion" : ".9451366011009777",
        "equinox" : "J2000"
      }
    }, {
      "links" : {
        "self" : "https://api.nasa.gov/neo/rest/v1/neo/3597334?api_key=t0TVs3DtDT2H8Oy2Zy8m2eVrNsAVKAexjcZXUckd"
      },
      "neo_reference_id" : "3597334",
      "name" : "(2012 CU)",
      "nasa_jpl_url" : "http://ssd.jpl.nasa.gov/sbdb.cgi?sstr=3597334",
      "absolute_magnitude_h" : 26.1,
      "estimated_diameter" : {
        "kilometers" : {
          "estimated_diameter_min" : 0.0160160338,
          "estimated_diameter_max" : 0.0358129403
        },
        "meters" : {
          "estimated_diameter_min" : 16.0160337979,
          "estimated_diameter_max" : 35.8129403019
        },
        "miles" : {
          "estimated_diameter_min" : 0.0099518989,
          "estimated_diameter_max" : 0.0222531225
        },
        "feet" : {
          "estimated_diameter_min" : 52.5460443254,
          "estimated_diameter_max" : 117.4965270602
        }
      },
      "is_potentially_hazardous_asteroid" : false,
      "close_approach_data" : [ {
        "close_approach_date" : "2005-02-08",
        "epoch_date_close_approach" : 1107849600000,
        "relative_velocity" : {
          "kilometers_per_second" : "13.3536727368",
          "kilometers_per_hour" : "48073.2218524134",
          "miles_per_hour" : "29870.8305449065"
        },
        "miss_distance" : {
          "astronomical" : "0.0776051619",
          "lunar" : "30.1884098053",
          "kilometers" : "11609568",
          "miles" : "7213851"
        },
        "orbiting_body" : "Earth"
      } ],
      "orbital_data" : {
        "orbit_id" : "9",
        "orbit_determination_date" : "2017-04-06 08:51:03",
        "orbit_uncertainty" : "7",
        "minimum_orbit_intersection" : ".00306738",
        "jupiter_tisserand_invariant" : "3.980",
        "epoch_osculation" : "2458000.5",
        "eccentricity" : ".5069558394542641",
        "semi_major_axis" : "1.744944858899398",
        "inclination" : ".3104453139496167",
        "ascending_node_longitude" : "172.5854045252514",
        "orbital_period" : "841.9203137790076",
        "perihelion_distance" : ".8603348731546512",
        "perihelion_argument" : "267.9636850382745",
        "aphelion_distance" : "2.629554844644145",
        "perihelion_time" : "2457605.738991582892",
        "mean_anomaly" : "168.7974036310777",
        "mean_motion" : ".4275939113336265",
        "equinox" : "J2000"
      }
    }, {
      "links" : {
        "self" : "https://api.nasa.gov/neo/rest/v1/neo/3608667?api_key=t0TVs3DtDT2H8Oy2Zy8m2eVrNsAVKAexjcZXUckd"
      },
      "neo_reference_id" : "3608667",
      "name" : "(2012 RT16)",
      "nasa_jpl_url" : "http://ssd.jpl.nasa.gov/sbdb.cgi?sstr=3608667",
      "absolute_magnitude_h" : 26.9,
      "estimated_diameter" : {
        "kilometers" : {
          "estimated_diameter_min" : 0.0110803882,
          "estimated_diameter_max" : 0.0247765013
        },
        "meters" : {
          "estimated_diameter_min" : 11.0803882126,
          "estimated_diameter_max" : 24.7765012606
        },
        "miles" : {
          "estimated_diameter_min" : 0.0068850319,
          "estimated_diameter_max" : 0.0153953994
        },
        "feet" : {
          "estimated_diameter_min" : 36.3529808636,
          "estimated_diameter_max" : 81.2877363957
        }
      },
      "is_potentially_hazardous_asteroid" : false,
      "close_approach_data" : [ {
        "close_approach_date" : "2005-02-08",
        "epoch_date_close_approach" : 1107849600000,
        "relative_velocity" : {
          "kilometers_per_second" : "8.1111958746",
          "kilometers_per_hour" : "29200.3051486967",
          "miles_per_hour" : "18143.9340519777"
        },
        "miss_distance" : {
          "astronomical" : "0.190274174",
          "lunar" : "74.0166549683",
          "kilometers" : "28464612",
          "miles" : "17687090"
        },
        "orbiting_body" : "Earth"
      } ],
      "orbital_data" : {
        "orbit_id" : "5",
        "orbit_determination_date" : "2017-04-06 08:49:00",
        "orbit_uncertainty" : "6",
        "minimum_orbit_intersection" : ".0122711",
        "jupiter_tisserand_invariant" : "6.365",
        "epoch_osculation" : "2458000.5",
        "eccentricity" : ".2954876457465489",
        "semi_major_axis" : ".9344205886197063",
        "inclination" : "10.39816784428386",
        "ascending_node_longitude" : "172.1166388680042",
        "orbital_period" : "329.922568953885",
        "perihelion_distance" : ".6583108487513648",
        "perihelion_argument" : "54.36983910964064",
        "aphelion_distance" : "1.210530328488048",
        "perihelion_time" : "2458078.518734326481",
        "mean_anomaly" : "274.8686782883929",
        "mean_motion" : "1.091165121384342",
        "equinox" : "J2000"
      }
    }, {
      "links" : {
        "self" : "https://api.nasa.gov/neo/rest/v1/neo/3740926?api_key=t0TVs3DtDT2H8Oy2Zy8m2eVrNsAVKAexjcZXUckd"
      },
      "neo_reference_id" : "3740926",
      "name" : "(2016 BV14)",
      "nasa_jpl_url" : "http://ssd.jpl.nasa.gov/sbdb.cgi?sstr=3740926",
      "absolute_magnitude_h" : 21.7,
      "estimated_diameter" : {
        "kilometers" : {
          "estimated_diameter_min" : 0.1214940408,
          "estimated_diameter_max" : 0.2716689341
        },
        "meters" : {
          "estimated_diameter_min" : 121.4940407996,
          "estimated_diameter_max" : 271.6689340891
        },
        "miles" : {
          "estimated_diameter_min" : 0.0754928736,
          "estimated_diameter_max" : 0.1688071972
        },
        "feet" : {
          "estimated_diameter_min" : 398.6025088171,
          "estimated_diameter_max" : 891.3023057169
        }
      },
      "is_potentially_hazardous_asteroid" : true,
      "close_approach_data" : [ {
        "close_approach_date" : "2005-02-08",
        "epoch_date_close_approach" : 1107849600000,
        "relative_velocity" : {
          "kilometers_per_second" : "33.2003344028",
          "kilometers_per_hour" : "119521.2038500685",
          "miles_per_hour" : "74265.8280256162"
        },
        "miss_distance" : {
          "astronomical" : "0.454604947",
          "lunar" : "176.8413238525",
          "kilometers" : "68007936",
          "miles" : "42258172"
        },
        "orbiting_body" : "Earth"
      } ],
      "orbital_data" : {
        "orbit_id" : "8",
        "orbit_determination_date" : "2017-04-06 08:28:55",
        "orbit_uncertainty" : "6",
        "minimum_orbit_intersection" : ".00575162",
        "jupiter_tisserand_invariant" : "3.141",
        "epoch_osculation" : "2458000.5",
        "eccentricity" : ".7127403368733652",
        "semi_major_axis" : "2.360527014536164",
        "inclination" : "7.709094832959305",
        "ascending_node_longitude" : "138.5666984802026",
        "orbital_period" : "1324.682775537993",
        "perihelion_distance" : ".6780841949969793",
        "perihelion_argument" : "260.6215053037919",
        "aphelion_distance" : "4.042969834075349",
        "perihelion_time" : "2457344.359021632254",
        "mean_anomaly" : "178.3149570405308",
        "mean_motion" : ".2717631773039347",
        "equinox" : "J2000"
      }
    } ]
  }
}